{"fetched_at":"2026-03-29T16:36:15Z","count":15609,"tles":[{"name":"STARLINK-36206","line1":"1 66930U 25286F   26087.89622787  .00027090  00000+0  92309-3 0  9992","line2":"2 66930  53.1577 269.5019 0001142  61.7313 298.3803 15.30212520 18345","category":"Starlink"}]}